start=new Date('2023-06-23T00:00:00.000Z').valueOf();
sats=[{"CENTER_NAME":"EARTH","EPOCH":"2023-06-22T18:42:14.705568","MEAN_ANOMALY":"256.8090","OBJECT_ID":"2021-038BC","MEAN_MOTION":"15.06397159","SITE":"AFETR","ECCENTRICITY":"0.00011890","FILE":"3940149","TLE_LINE2":"2 48403  53.0553 109.9871 0001189 103.3031 256.8090 15.06397159118542","INCLINATION":"53.0553","BSTAR":"-0.00012594000000","MEAN_ELEMENT_THEORY":"SGP4","RCS_SIZE":"LARGE","EPHEMERIS_TYPE":"0","OBJECT_TYPE":"PAYLOAD","ARG_OF_PERICENTER":"103.3031","MEAN_MOTION_DDOT":"0.0000000000000","NORAD_CAT_ID":"48403","OBJECT_NAME":"STARLINK-2561","LAUNCH_DATE":"2021-05-04","PERIAPSIS":"546.399","TIME_SYSTEM":"UTC","COUNTRY_CODE":"US","REV_AT_EPOCH":"11854","GP_ID":"234463530","APOAPSIS":"548.046","MEAN_MOTION_DOT":"-0.00002157","CLASSIFICATION_TYPE":"U","RA_OF_ASC_NODE":"109.9871","PERIOD":"95.592","REF_FRAME":"TEME","DECAY_DATE":null,"TLE_LINE1":"1 48403U 21038BC  23173.77933687 -.00002157  00000-0 -12594-3 0  9990","ELEMENT_SET_NO":"999","SEMIMAJOR_AXIS":"6925.357"},{"SEMIMAJOR_AXIS":"6925.280","CLASSIFICATION_TYPE":"U","TLE_LINE1":"1 48404U 21038BD  23173.11217850  .00016801  00000-0  11434-2 0  9996","ELEMENT_SET_NO":"999","DECAY_DATE":null,"REF_FRAME":"TEME","PERIOD":"95.591","RA_OF_ASC_NODE":"112.9799","GP_ID":"234449746","REV_AT_EPOCH":"11844","COUNTRY_CODE":"US","TIME_SYSTEM":"UTC","PERIAPSIS":"546.123","MEAN_MOTION_DOT":"0.00016801","APOAPSIS":"548.166","LAUNCH_DATE":"2021-05-04","OBJECT_NAME":"STARLINK-2593","NORAD_CAT_ID":"48404","EPHEMERIS_TYPE":"0","OBJECT_TYPE":"PAYLOAD","ARG_OF_PERICENTER":"88.2634","MEAN_MOTION_DDOT":"0.0000000000000","MEAN_ELEMENT_THEORY":"SGP4","BSTAR":"0.00114340000000","INCLINATION":"53.0538","RCS_SIZE":"LARGE","TLE_LINE2":"2 48404  53.0538 112.9799 0001475  88.2634 271.8524 15.06422426118441","FILE":"3939630","ECCENTRICITY":"0.00014750","SITE":"AFETR","MEAN_MOTION":"15.06422426","OBJECT_ID":"2021-038BD","EPOCH":"2023-06-22T02:41:32.222400","CENTER_NAME":"EARTH","MEAN_ANOMALY":"271.8524"},{"SEMIMAJOR_AXIS":"6925.268","CLASSIFICATION_TYPE":"U","TLE_LINE1":"1 48405U 21038BE  23173.10849551  .00018014  00000-0  12243-2 0  9992","DECAY_DATE":null,"ELEMENT_SET_NO":"999","REF_FRAME":"TEME","PERIOD":"95.590","RA_OF_ASC_NODE":"112.9988","GP_ID":"234450247","REV_AT_EPOCH":"11844","COUNTRY_CODE":"US","TIME_SYSTEM":"UTC","PERIAPSIS":"546.285","MEAN_MOTION_DOT":"0.00018014","APOAPSIS":"547.980","LAUNCH_DATE":"2021-05-04","OBJECT_NAME":"STARLINK-2570","NORAD_CAT_ID":"48405","EPHEMERIS_TYPE":"0","OBJECT_TYPE":"PAYLOAD","ARG_OF_PERICENTER":"81.9860","MEAN_MOTION_DDOT":"0.0000000000000","MEAN_ELEMENT_THEORY":"SGP4","BSTAR":"0.00122430000000","INCLINATION":"53.0534","RCS_SIZE":"LARGE","TLE_LINE2":"2 48405  53.0534 112.9988 0001224  81.9860 278.1268 15.06426420118444","ECCENTRICITY":"0.00012240","FILE":"3939630","SITE":"AFETR","OBJECT_ID":"2021-038BE","MEAN_MOTION":"15.06426420","EPOCH":"2023-06-22T02:36:14.012064","CENTER_NAME":"EARTH","MEAN_ANOMALY":"278.1268"},{"RCS_SIZE":"LARGE","MEAN_ELEMENT_THEORY":"SGP4","INCLINATION":"53.0536","BSTAR":"0.00084465000000","MEAN_MOTION_DDOT":"0.0000000000000","ARG_OF_PERICENTER":"91.8934","OBJECT_TYPE":"PAYLOAD","EPHEMERIS_TYPE":"0","MEAN_ANOMALY":"268.2219","CENTER_NAME":"EARTH","EPOCH":"2023-06-22T02:30:55.977984","FILE":"3939591","ECCENTRICITY":"0.00014350","TLE_LINE2":"2 48406  53.0536 113.0142 0001435  91.8934 268.2219 15.06412126118441","OBJECT_ID":"2021-038BF","MEAN_MOTION":"15.06412126","SITE":"AFETR","REF_FRAME":"TEME","TLE_LINE1":"1 48406U 21038BF  23173.10481456  .00012326  00000-0  84465-3 0  9995","DECAY_DATE":null,"ELEMENT_SET_NO":"999","RA_OF_ASC_NODE":"113.0142","PERIOD":"95.591","CLASSIFICATION_TYPE":"U","SEMIMAJOR_AXIS":"6925.311","NORAD_CAT_ID":"48406","OBJECT_NAME":"STARLINK-2568","LAUNCH_DATE":"2021-05-04","MEAN_MOTION_DOT":"0.00012326","APOAPSIS":"548.170","REV_AT_EPOCH":"11844","GP_ID":"234449766","PERIAPSIS":"546.183","TIME_SYSTEM":"UTC","COUNTRY_CODE":"US"},{"SEMIMAJOR_AXIS":"6925.315","REF_FRAME":"TEME","ELEMENT_SET_NO":"999","TLE_LINE1":"1 48407U 21038BG  23173.10111350  .00000368  00000-0  43595-4 0  9992","DECAY_DATE":null,"RA_OF_ASC_NODE":"113.0333","PERIOD":"95.591","CLASSIFICATION_TYPE":"U","MEAN_MOTION_DOT":"0.00000368","APOAPSIS":"548.202","REV_AT_EPOCH":"11843","GP_ID":"234448698","PERIAPSIS":"546.158","TIME_SYSTEM":"UTC","COUNTRY_CODE":"US","OBJECT_NAME":"STARLINK-2595","NORAD_CAT_ID":"48407","LAUNCH_DATE":"2021-05-04","MEAN_MOTION_DDOT":"0.0000000000000","ARG_OF_PERICENTER":"91.6444","EPHEMERIS_TYPE":"0","OBJECT_TYPE":"PAYLOAD","RCS_SIZE":"LARGE","MEAN_ELEMENT_THEORY":"SGP4","INCLINATION":"53.0548","BSTAR":"0.00004359500000","ECCENTRICITY":"0.00014760","FILE":"3939547","TLE_LINE2":"2 48407  53.0548 113.0333 0001476  91.6444 268.4714 15.06411009118436","OBJECT_ID":"2021-038BG","MEAN_MOTION":"15.06411009","SITE":"AFETR","MEAN_ANOMALY":"268.4714","CENTER_NAME":"EARTH","EPOCH":"2023-06-22T02:25:36.206400"},{"RCS_SIZE":"LARGE","MEAN_ELEMENT_THEORY":"SGP4","BSTAR":"0.00016144000000","INCLINATION":"53.0531","ARG_OF_PERICENTER":"89.4436","MEAN_MOTION_DDOT":"0.0000000000000","EPHEMERIS_TYPE":"0","OBJECT_TYPE":"PAYLOAD","MEAN_ANOMALY":"270.6791","EPOCH":"2023-06-22T13:29:05.435808","CENTER_NAME":"EARTH","TLE_LINE2":"2 48408  53.0531 110.9590 0002082  89.4436 270.6791 15.06397971118509","ECCENTRICITY":"0.00020820","FILE":"3940152","SITE":"AFETR","OBJECT_ID":"2021-038BH","MEAN_MOTION":"15.06397971","TLE_LINE1":"1 48408U 21038BH  23173.56186847  .00002124  00000-0  16144-3 0  9997","ELEMENT_SET_NO":"999","DECAY_DATE":null,"REF_FRAME":"TEME","PERIOD":"95.592","RA_OF_ASC_NODE":"110.9590","CLASSIFICATION_TYPE":"U","SEMIMAJOR_AXIS":"6925.355","LAUNCH_DATE":"2021-05-04","NORAD_CAT_ID":"48408","OBJECT_NAME":"STARLINK-2592","MEAN_MOTION_DOT":"0.00002124","APOAPSIS":"548.662","GP_ID":"234463088","REV_AT_EPOCH":"11850","COUNTRY_CODE":"US","TIME_SYSTEM":"UTC","PERIAPSIS":"545.778"},{"OBJECT_NAME":"STARLINK-2596","NORAD_CAT_ID":"48409","LAUNCH_DATE":"2021-05-04","APOAPSIS":"548.132","MEAN_MOTION_DOT":"0.00002969","PERIAPSIS":"546.277","TIME_SYSTEM":"UTC","COUNTRY_CODE":"US","REV_AT_EPOCH":"11837","GP_ID":"234449767","RA_OF_ASC_NODE":"117.9393","PERIOD":"95.592","REF_FRAME":"TEME","TLE_LINE1":"1 48409U 21038BJ  23173.12092534  .00002969  00000-0  21813-3 0  9995","ELEMENT_SET_NO":"999","DECAY_DATE":null,"CLASSIFICATION_TYPE":"U","SEMIMAJOR_AXIS":"6925.340","MEAN_ANOMALY":"269.7245","CENTER_NAME":"EARTH","EPOCH":"2023-06-22T02:54:07.949376","MEAN_MOTION":"15.06402914","OBJECT_ID":"2021-038BJ","SITE":"AFETR","ECCENTRICITY":"0.00013390","FILE":"3939592","TLE_LINE2":"2 48409  53.0551 117.9393 0001339  90.3898 269.7245 15.06402914118379","RCS_SIZE":"LARGE","INCLINATION":"53.0551","BSTAR":"0.00021813000000","MEAN_ELEMENT_THEORY":"SGP4","ARG_OF_PERICENTER":"90.3898","MEAN_MOTION_DDOT":"0.0000000000000","OBJECT_TYPE":"PAYLOAD","EPHEMERIS_TYPE":"0"},{"ARG_OF_PERICENTER":"3.7518","MEAN_MOTION_DDOT":"0.0000000000000","EPHEMERIS_TYPE":"0","OBJECT_TYPE":"PAYLOAD","RCS_SIZE":"LARGE","INCLINATION":"53.0541","BSTAR":"0.00095104000000","MEAN_ELEMENT_THEORY":"SGP4","OBJECT_ID":"2021-038BK","MEAN_MOTION":"15.06384547","SITE":"AFETR","FILE":"3940183","ECCENTRICITY":"0.00018520","TLE_LINE2":"2 48410  53.0541  65.2399 0001852   3.7518 356.3484 15.06384547119165","MEAN_ANOMALY":"356.3484","CENTER_NAME":"EARTH","EPOCH":"2023-06-22T17:20:38.920416","SEMIMAJOR_AXIS":"6925.396","RA_OF_ASC_NODE":"65.2399","PERIOD":"95.593","REF_FRAME":"TEME","TLE_LINE1":"1 48410U 21038BK  23173.72267269  .00013907  00000-0  95104-3 0  9990","ELEMENT_SET_NO":"999","DECAY_DATE":null,"CLASSIFICATION_TYPE":"U","APOAPSIS":"548.544","MEAN_MOTION_DOT":"0.00013907","PERIAPSIS":"545.978","COUNTRY_CODE":"US","TIME_SYSTEM":"UTC","REV_AT_EPOCH":"11916","GP_ID":"234464372","OBJECT_NAME":"STARLINK-2563","NORAD_CAT_ID":"48410","LAUNCH_DATE":"2021-05-04"},{"LAUNCH_DATE":"2021-05-04","OBJECT_NAME":"STARLINK-2505","NORAD_CAT_ID":"48411","TIME_SYSTEM":"UTC","COUNTRY_CODE":"US","PERIAPSIS":"545.886","GP_ID":"234463109","REV_AT_EPOCH":"11922","APOAPSIS":"548.527","MEAN_MOTION_DOT":"0.00016470","CLASSIFICATION_TYPE":"U","PERIOD":"95.592","RA_OF_ASC_NODE":"60.4661","DECAY_DATE":null,"TLE_LINE1":"1 48411U 21038BL  23173.67337108  .00016470  00000-0  11219-2 0  9997","ELEMENT_SET_NO":"999","REF_FRAME":"TEME","SEMIMAJOR_AXIS":"6925.342","EPOCH":"2023-06-22T16:09:39.261312","CENTER_NAME":"EARTH","MEAN_ANOMALY":"274.8972","SITE":"AFETR","MEAN_MOTION":"15.06402212","OBJECT_ID":"2021-038BL","TLE_LINE2":"2 48411  53.0527  60.4661 0001907  85.2234 274.8972 15.06402212119223","FILE":"3940153","ECCENTRICITY":"0.00019070","BSTAR":"0.00112190000000","INCLINATION":"53.0527","MEAN_ELEMENT_THEORY":"SGP4","RCS_SIZE":"LARGE","EPHEMERIS_TYPE":"0","OBJECT_TYPE":"PAYLOAD","MEAN_MOTION_DDOT":"0.0000000000000","ARG_OF_PERICENTER":"85.2234"},{"TLE_LINE2":"2 48412  53.0547  60.5196 0000954  91.7000 268.4099 15.06379502119228","ECCENTRICITY":"0.00009540","FILE":"3940254","SITE":"AFETR","OBJECT_ID":"2021-038BM","MEAN_MOTION":"15.06379502","EPOCH":"2023-06-22T18:11:48.441120","CENTER_NAME":"EARTH","MEAN_ANOMALY":"268.4099","EPHEMERIS_TYPE":"0","OBJECT_TYPE":"PAYLOAD","MEAN_MOTION_DDOT":"0.0000000000000","ARG_OF_PERICENTER":"91.7000","MEAN_ELEMENT_THEORY":"SGP4","BSTAR":"0.00086301000000","INCLINATION":"53.0547","RCS_SIZE":"LARGE","GP_ID":"234464986","REV_AT_EPOCH":"11922","TIME_SYSTEM":"UTC","COUNTRY_CODE":"US","PERIAPSIS":"546.616","MEAN_MOTION_DOT":"0.00012589","APOAPSIS":"547.937","LAUNCH_DATE":"2021-05-04","NORAD_CAT_ID":"48412","OBJECT_NAME":"STARLINK-2581","SEMIMAJOR_AXIS":"6925.411","CLASSIFICATION_TYPE":"U","TLE_LINE1":"1 48412U 21038BM  23173.75819955  .00012589  00000-0  86301-3 0  9994","ELEMENT_SET_NO":"999","DECAY_DATE":null,"REF_FRAME":"TEME","PERIOD":"95.593","RA_OF_ASC_NODE":"60.5196"}];
